CUBEBUG-2 (LO-74)       
1 39440U 13066AA  26162.30229726  .00003136  00000+0  29203-3 0  9995
2 39440  97.8900 111.2554 0058933  48.0727 312.5496 14.93713369676117
FUNCUBE-1 (AO-73)       
1 39444U 13066AE  26162.55441071  .00005554  00000+0  34659-3 0  9992
2 39444  97.8262 133.8824 0035145 220.5848 139.2760 15.09420112678819
UWE-3                   
1 39446U 13066AG  26162.40047068  .00003579  00000+0  30929-3 0  9997
2 39446  97.8684 118.4353 0048487 340.4805  19.4558 14.96977019676712
UNISAT-6                
1 40012U 14033C   26162.41830894  .00002346  00000+0  25525-3 0  9998
2 40012  97.7868 315.2326 0046407  87.7879 272.8650 14.88214275645303
DUCHIFAT-1              
1 40021U 14033M   26162.64748508  .00098680  00000+0  10582-2 0  9995
2 40021  98.0478 221.0346 0003968 124.0330 236.1304 15.63483889654887
QB50P1                  
1 40025U 14033R   26162.54789999  .00007133  00000+0  35252-3 0  9992
2 40025  98.0966 173.2986 0007302 237.3952 122.6576 15.18175616652171
LILACSAT-2              
1 40908U 15049K   26162.72511125  .00016695  00000+0  28622-3 0  9990
2 40908  97.4658 199.3593 0005273 271.4638  88.6010 15.51265879594908
FOX-1A (AO-85)          
1 40967U 15058D   26162.65117110  .00002319  00000+0  21466-3 0  9990
2 40967  64.7758 296.1869 0130118  58.7517 302.6266 14.90943222112749
CAS-2T & KS-1Q          
1 41847U 16066G   26162.69969390  .00001523  00000+0  22073-3 0  9998
2 41847  98.3821 238.4986 0342615 146.0770 216.2856 14.44676189504002
RADFXSAT (FOX-1B)       
1 43017U 17073E   26162.58534500  .00008698  00000+0  38005-3 0  9999
2 43017  97.4718  29.9151 0150450 348.6412  11.1435 15.12626564464549
DIWATA-2B               
1 43678U 18084H   26162.76812162  .00002563  00000+0  20879-3 0  9993
2 43678  98.1180 358.7415 0012188 187.7558 172.3478 15.00427356415400
ES'HAIL 2               
1 43700U 18090A   26162.55701273  .00000161  00000+0  00000+0 0  9995
2 43700   0.0171 319.2547 0001873 163.3216   3.6824  1.00274346 27624
FOX-1CLIFF (AO-95)      
1 43770U 18099N   26162.11310128  .00010727  00000+0  41211-3 0  9990
2 43770  97.4393 222.3819 0008613  20.0469 340.1107 15.26583130412292
ITASAT                  
1 43786U 18099AE  26162.68590565  .00006612  00000+0  31860-3 0  9991
2 43786  97.4034 214.3073 0012715  19.6048 340.5673 15.18988570412075
JY1SAT (JO-97)          
1 43803U 18099AX  26162.41903211  .00013576  00000+0  42176-3 0  9997
2 43803  97.4135 225.2337 0004121 290.5933  69.4867 15.33467542412740
UWE-4                   
1 43880U 18111E   26162.06603225  .00030336  00000+0  62723-3 0  9993
2 43880  97.5852  90.1763 0006666   7.8986 352.2366 15.45743461409830
TIANYAN 01              
1 44881U 19093C   26162.72703957  .00000261  00000+0  35496-4 0  9993
2 44881  97.7532 235.0922 0015004 102.9430 257.3462 14.86509304350605
RS-44 & BREEZE-KM R/B   
1 44909U 19096E   26162.61066808  .00000028  00000+0  60927-4 0  9990
2 44909  82.5217 343.4113 0217927 157.1662 203.9312 12.79748751301632
SALSAT                  
1 46495U 20068K   26162.58556220  .00006923  00000+0  24314-3 0  9990
2 46495  97.8849 165.3093 0008526 331.4069  28.6701 15.29719030314503
XW-3 (CAS-9)            
1 50466U 21131B   26162.70932439  .00000499  00000+0  16770-3 0  9998
2 50466  98.4973 255.1286 0005298 109.0194 251.1569 14.41352978234327
GREENCUBE (IO-117)      
1 53109U 22080E   26152.46502029 -.00000003  00000+0  00000+0 0  9996
2 53109  70.1435 303.7143 0008869 293.3663  66.6064  6.42583280 91055
UMKA 1 (RS40S)          
1 57172U 23091G   26162.69853169  .00005909  00000+0  27090-3 0  9994
2 57172  97.5058 221.4167 0014017 134.8199 225.4178 15.20754474163175
CUBESX-HSE 3 (RS42S)    
1 57178U 23091N   26162.61888245  .00012440  00000+0  41588-3 0  9991
2 57178  97.5100 228.1359 0012140 111.7791 248.4743 15.31072798163574
MONITOR-3 (RS58S)       
1 57180U 23091Q   26162.69663530  .00009662  00000+0  35845-3 0  9991
2 57180  97.5092 226.1025 0013114 117.6783 242.5789 15.27730668163457
MONITOR-4 (RS57S)       
1 57182U 23091S   26162.67600116  .00009113  00000+0  33733-3 0  9997
2 57182  97.5085 226.0526 0013088 118.0614 242.1951 15.27819989163455
MONITOR-2 (RS39S)       
1 57184U 23091U   26162.64703955  .00004855  00000+0  23583-3 0  9991
2 57184  97.5079 220.9656 0012556 128.0154 232.2216 15.18858511163117
SVYATOBOR 1 (RS60S)     
1 57187U 23091X   26162.61883659  .00008095  00000+0  31225-3 0  9993
2 57187  97.5097 226.4049 0010916 111.0802 249.1605 15.26519253163460
VIZARD-METEO (RS38S)    
1 57189U 23091Z   26162.67513366  .00015906  00000+0  45741-3 0  9993
2 57189  97.5099 232.0501 0008561  94.1877 266.0344 15.35849394163848
POLYTECH-UNIVERSE 3 (R*)
1 57191U 23091AB  26162.67497279  .00004397  00000+0  21236-3 0  9995
2 57191  97.5055 220.4980 0016549 144.3844 215.8498 15.19060207163114
UTMN 2 (RS27S)          
1 57203U 23091AP  26162.70483822  .00011710  00000+0  38190-3 0  9996
2 57203  97.5095 229.8501 0009468 100.0168 260.2142 15.31916096163709
